#dP2018  5 31  0  0  0.00000000      96 __u+U ITR00 FIT  IAC
## 2003 345600.00000000   900.00000000 58269 0.0000000000000
+   88   C01C02C03C04C05C06C07C08C09C10C11C12C13C14E01E02E03
+        E04E05E07E08E09E11E12E14E18E19E24E26E30G01G02G03G04
+        G05G06G07G08G09G10G11G12G13G14G15G16G17G18G19G20G21
+        G22G23G24G25G26G27G28G29G30G31G32J01J02J03R01R02R03
+        R04R05R07R08R09R10R11R13R14R15R16R17R18R19R20R21R22
+        R23R24R26  0  0  0  0  0  0  0  0  0  0  0  0  0  0
++         0  0  0  0  0  0  0  0  0  0  0  0  0  0  0  0  0
++         0  0  0  0  0  0  0  0  0  0  0  0  0  0  0  0  0
++         0  0  0  0  0  0  0  0  0  0  0  0  0  0  0  0  0
++         0  0  0  0  0  0  0  0  0  0  0  0  0  0  0  0  0
++         0  0  0  0  0  0  0  0  0  0  0  0  0  0  0  0  0
++         0  0  0  0  0  0  0  0  0  0  0  0  0  0  0  0  0
%c M  cc GPS ccc cccc cccc cccc cccc ccccc ccccc ccccc ccccc
%c cc cc ccc ccc cccc cccc cccc cccc ccccc ccccc ccccc ccccc
%f  0.0000000  0.000000000  0.00000000000  0.000000000000000
%f  0.0000000  0.000000000  0.00000000000  0.000000000000000
%i    0    0    0    0      0      0      0      0         0
%i    0    0    0    0      0      0      0      0         0
/*                                                          
/*   RSA / INFORMATION & ANALYSIS CENTER (IAC) OF MCC       
/*   ULTRA-RAPID DETERMINATION                              
/* PCV:IGS14_2000 OL/AL:FES2004  NONE     YN ORB:CoN CLK:CoN
*  2018 05 31 16 45  0.00000000
PC01 -32320.287267  27070.574704  -1091.111088   -227.000707
PC02   4340.962152  41935.190068    786.386315    396.240654
PC03 -14689.881672  39538.220617   -818.338364   -236.766690
PC04 -39603.921782  14434.740236   -600.675981   -240.098500
PC05  21906.557489  36039.479289    689.938278    393.571224
PC06  -7634.603966  26823.452250  31986.990343     37.128298
PC07 -24147.839756  24725.189172 -24335.913119    127.506697
PC08 -17433.317649  37627.148281  -6862.138565    367.292249
PC09   5918.878214  34884.216736  23347.590412    -79.523486
PC10  -6265.503582  26634.736636 -32057.888388   -273.992156
PC11   3180.858000  27669.393971   -911.912756   -530.566671
PC12  -9022.041326  19494.016462 -17713.784902    461.469052
PC13  -8759.158619  40587.635342   6557.651610   -355.747701
PC14   4918.863855  17782.820956  21014.901676    387.082157
PE01  17206.505007   9579.110015 -22101.196669   -357.571026
PE02 -17238.085468  -9553.376719  22079.697360     15.028470
PE03 -21391.518265 -20442.774080   -991.303740    -38.296006
PE04  23945.563837   6147.177603 -16269.198731    -45.559614
PE05  -6274.365323 -22823.570985 -17762.419906    254.756303
PE07 -12474.792134  11847.799123  24101.939761     23.389983
PE08 -23950.187541  -5984.949222  16350.486542   6573.548975
PE09  12279.831825 -11826.195964 -24182.329990   6776.338164
PE11  13602.509935 -22863.187172  12946.936895    587.522605
PE12  17051.595090  -2766.702256  24035.904062   4279.603948
PE14  15512.437411  18274.964891  10096.692681   6574.229363
PE18 -21251.593600  -7263.252176 -21478.849158   6167.324881
PE19  20495.270417  21177.903127   2811.108689     22.775490
PE24  22765.072982 -15108.236792  11386.799435   6677.559150
PE26  -2563.427884  29037.200453   5153.397465   5874.930455
PE30 -28364.597963   3906.514338   7491.059164   5795.848710
PG01  13126.990753 -22534.627889  -4222.967732    -52.282012
PG02 -19083.842860   9566.954130 -15088.728283     99.319906
PG03   9643.875530 -13519.442826 -20734.817648     80.769447
PG04  23995.217959   8778.189565  -8028.176186     65.189920
PG05 -25520.917841   2863.130252   7097.214170     -6.954120
PG06 -14412.818744  -5324.272305 -21634.393347    399.598648
PG07    291.308391 -20250.809429  17154.761315    182.871813
PG08   9320.029727 -13818.857060  20687.764331   -103.155850
PG09  -7134.315790 -25004.146564  -5410.738603    514.422273
PG10  20681.494088  11095.403263  12630.143786    186.944150
PG11   9035.929103 -24502.300001   4713.541351   -735.071839
PG12 -13733.239302  11037.512505 -20002.620845    330.305527
PG13 -14316.329550   4465.734762  21812.649984    -93.952795
PG14  16675.849970  10720.945382 -17461.718543    -97.187729
PG15  -7950.707765  15862.585935  19440.084805   -353.396631
PG16  25840.886405    395.147706   6858.238079     23.012518
PG17 -14836.083628 -19198.558928 -10559.685272    -92.731384
PG18  16886.225291 -19845.861840   4142.671837     15.956630
PG19 -16232.426662 -12077.580942 -17407.626942   -432.088017
PG20   7697.121587  15192.422577  20281.759370    509.451793
PG21   4188.467831  18772.619563  19126.978591   -387.725893
PG22  18082.855405 -11008.122258 -15789.262811   -410.458462
PG23   2791.307227 -20967.097593 -15508.715861   -216.450690
PG24 -14552.612435  22029.065440   -261.422077    -50.490934
PG25   1950.392333  15196.228980 -21899.787847   -593.718296
PG26  25907.121599   4969.771532  -3678.791255   -130.924063
PG27  15672.904554   -261.997411  21402.069339    367.584481
PG28 -17139.242977 -13826.259380  15434.244690    719.865642
PG29   3721.912462  25126.838443  -7811.754141    440.541444
PG30  -8134.583454 -14057.763813  20998.561749     67.890179
PG31  15766.415573   3629.693723 -21099.877097    117.816228
PG32  16110.668282  18603.637140 -10063.034883   -501.545516
PJ01 -28574.051175  23280.059512  25636.031321 999999.999999
PJ02 -35054.826253  23153.560103   1505.389624 999999.999999
PJ03 -20281.270938  22685.169526 -24585.539612    -14.129474
PR01   7048.734206  -8699.176485 -22909.804271     27.006232
PR02 -11952.234146 -16248.039644 -15539.508636    312.505868
PR03 -21822.019714 -13131.800364   1013.731772    133.694156
PR04 -18707.844256  -2008.876093  17237.972327    263.027665
PR05  -5167.378224   9871.255967  22944.457310    -17.119788
PR07  21902.938523  13039.558069  -1312.577771    -38.918289
PR08  19063.873855   2574.024442 -16694.801727     22.940122
PR09    387.245016  12010.643989 -22498.295616     25.476819
PR10  16188.319116   1837.969421 -19620.220196     25.323299
PR11  23185.311967  -9492.342595  -4654.745617    -30.135873
PR13   -637.797975 -11690.673285  22639.360710    -10.936004
PR14 -16232.127518  -2020.292637  19586.368619     27.754646
PR15 -22824.440595   7290.712836   8612.855992    -11.042422
PR16 -16462.191498  15366.216240 -11900.536583     93.832237
PR17  -8625.290625 -13354.664624 -19951.735414    136.583966
PR18 -10558.301600   5218.218899 -22623.997066    197.598806
PR19  -7069.432837  20969.271008 -12694.615399    -53.735392
PR20   1102.140965  24803.284405   5980.091328   -339.941184
PR21   8670.948990  12974.741219  20169.867360     13.997487
PR22  10385.107656  -7198.302760  22134.517320    -47.413150
PR23   5250.839421 -23189.859743   9217.513126    156.940155
PR24  -2012.878640 -24462.363680  -6933.370890   -167.000698
PR26   1258.533233  24925.897126   5233.815827     23.337001
EOF
